COSMOS 2361             
1 25590U 98076A   26087.62518681  .00000091  00000+0  82266-4 0  9998
2 25590  82.9297 265.7788 0030826 333.4455  98.5735 13.73229955365646
COSMOS 2378             
1 26818U 01023A   26087.60993100  .00000073  00000+0  61237-4 0  9994
2 26818  82.9228 281.2339 0031653 272.4431 148.4694 13.74152845243776
COSMOS 2389             
1 27436U 02026A   26087.62594316  .00000063  00000+0  49144-4 0  9995
2 27436  82.9503 228.5955 0047480 123.7153 248.9263 13.75166124196042
COSMOS 2398             
1 27818U 03023A   26087.55699110  .00000043  00000+0  30481-4 0  9999
2 27818  82.9521 194.7216 0031606 176.5633 194.1453 13.72397030142685
COSMOS 2407             
1 28380U 04028A   26087.59931423  .00000076  00000+0  61265-4 0  9990
2 28380  82.9596 134.5260 0040581 116.9855 353.6030 13.76327199 88796
COSMOS 2414             
1 28521U 05002A   26087.57826392  .00000062  00000+0  38386-4 0  9999
2 28521  82.9453 104.6260 0039648 197.2912 162.6904 13.87917721 72633
COSMOS 2429             
1 32052U 07038A   26087.58644461  .00000075  00000+0  61960-4 0  9998
2 32052  82.9761 265.2848 0039684 100.3096 260.2538 13.75160180930573
COSMOS 2454             
1 35635U 09039A   26087.50971006  .00000084  00000+0  55247-4 0  9992
2 35635  82.9518  88.4543 0020349 127.2024 351.0138 13.89943380846192
COSMOS 2463             
1 36519U 10017A   26087.57692733  .00000067  00000+0  57959-4 0  9999
2 36519  82.9593 308.9542 0036081 355.9293  22.1557 13.71659723796881
